[{"OBJECT_NAME":"STARLINK-3588","OBJECT_ID":"2022-022T","EPOCH":"2026-03-09T05:17:43.014336","MEAN_MOTION":15.08857613,"ECCENTRICITY":0.00015494,"INCLINATION":53.2198,"RA_OF_ASC_NODE":11.2242,"ARG_OF_PERICENTER":99.0191,"MEAN_ANOMALY":261.0976,"EPHEMERIS_TYPE":0,"CLASSIFICATION_TYPE":"U","NORAD_CAT_ID":51869,"ELEMENT_SET_NO":999,"REV_AT_EPOCH":22304,"BSTAR":0.00023470848,"MEAN_MOTION_DOT":3.451e-5,"MEAN_MOTION_DDOT":0},{"OBJECT_NAME":"CZ-6A DEB","OBJECT_ID":"2024-126C","EPOCH":"2026-03-09T22:45:09.534528","MEAN_MOTION":15.08339588,"ECCENTRICITY":0.00034995,"INCLINATION":97.8272,"RA_OF_ASC_NODE":88.0703,"ARG_OF_PERICENTER":249.9832,"MEAN_ANOMALY":110.1019,"EPHEMERIS_TYPE":0,"CLASSIFICATION_TYPE":"U","NORAD_CAT_ID":60213,"ELEMENT_SET_NO":999,"REV_AT_EPOCH":9177,"BSTAR":0.0010886629,"MEAN_MOTION_DOT":0.00016868,"MEAN_MOTION_DDOT":0}]
